{"type": "FeatureCollection", "features": [ {"type": "Feature", "properties": {"norad_id": 66363, "name": "STARLINK-35806", "group": "last-30-days", "lat": 10.826368282851325, "lon": -26.76182544849449, "alt_km": 367.4422176860153, "timestamp": "2025-12-02T15:49:05.947542+00:00", "meta": {"OBJECT_NAME": "STARLINK-35806", "OBJECT_ID": "2025-254R", "EPOCH": "2025-12-02T06:00:02.999808", "MEAN_MOTION": 15.68535897, "ECCENTRICITY": 0.00013327, "INCLINATION": 53.1591, "RA_OF_ASC_NODE": 327.0055, "ARG_OF_PERICENTER": 95.8688, "MEAN_ANOMALY": 127.9541, "EPHEMERIS_TYPE": 0, "CLASSIFICATION_TYPE": "U", "NORAD_CAT_ID": 66363, "ELEMENT_SET_NO": 999, "REV_AT_EPOCH": 520, "BSTAR": -0.019625307, "MEAN_MOTION_DOT": -0.0199707, "MEAN_MOTION_DDOT": 0}, "tle": {"line1": "1 66363U 25254R   25336.25003472 -.01997070  00000+0 -19625-1 0  9992", "line2": "2 66363  53.1591 327.0055 0001332  95.8688 127.9541 15.68535897  5208"}}, "geometry": {"type": "Point", "coordinates": [-26.76182544849449, 10.826368282851325]}}, {"type": "Feature", "properties": {"norad_id": 66364, "name": "STARLINK-35797", "group": "last-30-days", "lat": 13.855109342897464, "lon": -24.35706824756017, "alt_km": 366.9494429613396, "timestamp": "2025-12-02T15:49:05.947554+00:00", "meta": {"OBJECT_NAME": "STARLINK-35797", "OBJECT_ID": "2025-254S", "EPOCH": "2025-12-02T06:00:02.999808", "MEAN_MOTION": 15.68538938, "ECCENTRICITY": 0.00011697, "INCLINATION": 53.1588, "RA_OF_ASC_NODE": 326.9971, "ARG_OF_PERICENTER": 96.0683, "MEAN_ANOMALY": 131.5859, "EPHEMERIS_TYPE": 0, "CLASSIFICATION_TYPE": "U", "NORAD_CAT_ID": 66364, "ELEMENT_SET_NO": 999, "REV_AT_EPOCH": 523, "BSTAR": -0.019657704, "MEAN_MOTION_DOT": -0.02000065, "MEAN_MOTION_DDOT": 0}, "tle": {"line1": "1 66364U 25254S   25336.25003472 -.02000065  00000+0 -19658-1 0  9999", "line2": "2 66364  53.1588 326.9971 0001169  96.0683 131.5859 15.68538938  5231"}}, "geometry": {"type": "Point", "coordinates": [-24.35706824756017, 13.855109342897464]}}, {"type": "Feature", "properties": {"norad_id": 66365, "name": "STARLINK-35827", "group": "last-30-days", "lat": 16.858304523307606, "lon": -21.888715195508812, "alt_km": 366.46235016256105, "timestamp": "2025-12-02T15:49:05.947565+00:00", "meta": {"OBJECT_NAME": "STARLINK-35827", "OBJECT_ID": "2025-254T", "EPOCH": "2025-12-02T06:00:02.999808", "MEAN_MOTION": 15.68532822, "ECCENTRICITY": 0.00012531, "INCLINATION": 53.159, "RA_OF_ASC_NODE": 326.99, "ARG_OF_PERICENTER": 99.6883, "MEAN_ANOMALY": 131.8056, "EPHEMERIS_TYPE": 0, "CLASSIFICATION_TYPE": "U", "NORAD_CAT_ID": 66365, "ELEMENT_SET_NO": 999, "REV_AT_EPOCH": 520, "BSTAR": -0.019607746, "MEAN_MOTION_DOT": -0.0199521, "MEAN_MOTION_DDOT": 0}, "tle": {"line1": "1 66365U 25254T   25336.25003472 -.01995210  00000+0 -19608-1 0  9999", "line2": "2 66365  53.1590 326.9900 0001253  99.6883 131.8056 15.68532822  5207"}}, "geometry": {"type": "Point", "coordinates": [-21.888715195508812, 16.858304523307606]}}, {"type": "Feature", "properties": {"norad_id": 66366, "name": "STARLINK-35845", "group": "last-30-days", "lat": 15.357836796475999, "lon": -23.13423055979082, "alt_km": 366.7073161368189, "timestamp": "2025-12-02T15:49:05.947577+00:00", "meta": {"OBJECT_NAME": "STARLINK-35845", "OBJECT_ID": "2025-254U", "EPOCH": "2025-12-02T06:00:02.999808", "MEAN_MOTION": 15.68533746, "ECCENTRICITY": 0.00013875, "INCLINATION": 53.1589, "RA_OF_ASC_NODE": 326.993, "ARG_OF_PERICENTER": 99.9785, "MEAN_ANOMALY": 129.5956, "EPHEMERIS_TYPE": 0, "CLASSIFICATION_TYPE": "U", "NORAD_CAT_ID": 66366, "ELEMENT_SET_NO": 999, "REV_AT_EPOCH": 523, "BSTAR": -0.019598743, "MEAN_MOTION_DOT": -0.01994577, "MEAN_MOTION_DDOT": 0}, "tle": {"line1": "1 66366U 25254U   25336.25003472 -.01994577  00000+0 -19599-1 0  9994", "line2": "2 66366  53.1589 326.9930 0001387  99.9785 129.5956 15.68533746  5233"}}, "geometry": {"type": "Point", "coordinates": [-23.13423055979082, 15.357836796475999]}}, {"type": "Feature", "properties": {"norad_id": 66367, "name": "STARLINK-35846", "group": "last-30-days", "lat": 18.34897827292397, "lon": -20.627170378112826, "alt_km": 366.0912960423884, "timestamp": "2025-12-02T15:49:05.947588+00:00", "meta": {"OBJECT_NAME": "STARLINK-35846", "OBJECT_ID": "2025-254V", "EPOCH": "2025-12-02T06:00:02.999808", "MEAN_MOTION": 15.68540892, "ECCENTRICITY": 0.00013032, "INCLINATION": 53.159, "RA_OF_ASC_NODE": 326.9849, "ARG_OF_PERICENTER": 91.4682, "MEAN_ANOMALY": 141.9379, "EPHEMERIS_TYPE": 0, "CLASSIFICATION_TYPE": "U", "NORAD_CAT_ID": 66367, "ELEMENT_SET_NO": 999, "REV_AT_EPOCH": 518, "BSTAR": -0.019712397, "MEAN_MOTION_DOT": -0.02005207, "MEAN_MOTION_DDOT": 0}, "tle": {"line1": "1 66367U 25254V   25336.25003472 -.02005207  00000+0 -19712-1 0  9996", "line2": "2 66367  53.1590 326.9849 0001303  91.4682 141.9379 15.68540892  5187"}}, "geometry": {"type": "Point", "coordinates": [-20.627170378112826, 18.34897827292397]}}, {"type": "Feature", "properties": {"norad_id": 66368, "name": "STARLINK-34861", "group": "last-30-days", "lat": 38.03852809623263, "lon": 0.835316041285131, "alt_km": 340.71061197323615, "timestamp": "2025-12-02T15:49:05.947599+00:00", "meta": {"OBJECT_NAME": "STARLINK-34861", "OBJECT_ID": "2025-254W", "EPOCH": "2025-12-02T06:27:51.754464", "MEAN_MOTION": 15.74298879, "ECCENTRICITY": 0.00010708, "INCLINATION": 53.1569, "RA_OF_ASC_NODE": 326.8523, "ARG_OF_PERICENTER": 108.7628, "MEAN_ANOMALY": 251.3508, "EPHEMERIS_TYPE": 0, "CLASSIFICATION_TYPE": "U", "NORAD_CAT_ID": 66368, "ELEMENT_SET_NO": 999, "REV_AT_EPOCH": 403, "BSTAR": 0.0019523452, "MEAN_MOTION_DOT": 0.00297016, "MEAN_MOTION_DDOT": 0}, "tle": {"line1": "1 66368U 25254W   25336.26934901  .00297016  00000+0  19523-2 0  9996", "line2": "2 66368  53.1569 326.8523 0001070 108.7628 251.3508 15.74298879  4030"}}, "geometry": {"type": "Point", "coordinates": [0.835316041285131, 38.03852809623263]}}, {"type": "Feature", "properties": {"norad_id": 66369, "name": "STARLINK-35795", "group": "last-30-days", "lat": 36.78215478655185, "lon": -0.9846825336766446, "alt_km": 340.82045567770183, "timestamp": "2025-12-02T15:49:05.947609+00:00", "meta": {"OBJECT_NAME": "STARLINK-35795", "OBJECT_ID": "2025-254X", "EPOCH": "2025-12-02T04:56:55.834656", "MEAN_MOTION": 15.74270448, "ECCENTRICITY": 0.00011623, "INCLINATION": 53.1571, "RA_OF_ASC_NODE": 327.1693, "ARG_OF_PERICENTER": 98.0243, "MEAN_ANOMALY": 262.0908, "EPHEMERIS_TYPE": 0, "CLASSIFICATION_TYPE": "U", "NORAD_CAT_ID": 66369, "ELEMENT_SET_NO": 999, "REV_AT_EPOCH": 402, "BSTAR": 0.0017822521, "MEAN_MOTION_DOT": 0.00269868, "MEAN_MOTION_DDOT": 0}, "tle": {"line1": "1 66369U 25254X   25336.20620179  .00269868  00000+0  17823-2 0  9995", "line2": "2 66369  53.1571 327.1693 0001162  98.0243 262.0908 15.74270448  4026"}}, "geometry": {"type": "Point", "coordinates": [-0.9846825336766446, 36.78215478655185]}}, {"type": "Feature", "properties": {"norad_id": 66370, "name": "STARLINK-35824", "group": "last-30-days", "lat": 39.26439338381124, "lon": 2.7158756910721964, "alt_km": 340.2810146917418, "timestamp": "2025-12-02T15:49:05.947620+00:00", "meta": {"OBJECT_NAME": "STARLINK-35824", "OBJECT_ID": "2025-254Y", "EPOCH": "2025-12-02T06:27:22.673952", "MEAN_MOTION": 15.74299122, "ECCENTRICITY": 0.0001114, "INCLINATION": 53.1569, "RA_OF_ASC_NODE": 326.8506, "ARG_OF_PERICENTER": 88.1389, "MEAN_ANOMALY": 271.9758, "EPHEMERIS_TYPE": 0, "CLASSIFICATION_TYPE": "U", "NORAD_CAT_ID": 66370, "ELEMENT_SET_NO": 999, "REV_AT_EPOCH": 403, "BSTAR": 0.0019406067, "MEAN_MOTION_DOT": 0.00295163, "MEAN_MOTION_DDOT": 0}, "tle": {"line1": "1 66370U 25254Y   25336.26901243  .00295163  00000+0  19406-2 0  9993", "line2": "2 66370  53.1569 326.8506 0001114  88.1389 271.9758 15.74299122  4035"}}, "geometry": {"type": "Point", "coordinates": [2.7158756910721964, 39.26439338381124]}}, {"type": "Feature", "properties": {"norad_id": 66371, "name": "STARLINK-35804", "group": "last-30-days", "lat": 41.65595852107753, "lon": 6.742883883414572, "alt_km": 340.0046529679694, "timestamp": "2025-12-02T15:49:05.947630+00:00", "meta": {"OBJECT_NAME": "STARLINK-35804", "OBJECT_ID": "2025-254Z", "EPOCH": "2025-12-02T04:54:58.892256", "MEAN_MOTION": 15.74287505, "ECCENTRICITY": 0.00013288, "INCLINATION": 53.1567, "RA_OF_ASC_NODE": 327.1601, "ARG_OF_PERICENTER": 113.4891, "MEAN_ANOMALY": 246.6269, "EPHEMERIS_TYPE": 0, "CLASSIFICATION_TYPE": "U", "NORAD_CAT_ID": 66371, "ELEMENT_SET_NO": 999, "REV_AT_EPOCH": 402, "BSTAR": 0.0018779006, "MEAN_MOTION_DOT": 0.00285115, "MEAN_MOTION_DDOT": 0}, "tle": {"line1": "1 66371U 25254Z   25336.20484829  .00285115  00000+0  18779-2 0  9992", "line2": "2 66371  53.1567 327.1601 0001328 113.4891 246.6269 15.74287505  4028"}}, "geometry": {"type": "Point", "coordinates": [6.742883883414572, 41.65595852107753]}}, {"type": "Feature", "properties": {"norad_id": 66372, "name": "STARLINK-35821", "group": "last-30-days", "lat": 40.48703601846447, "lon": 4.709538243159437, "alt_km": 339.9905985659043, "timestamp": "2025-12-02T15:49:05.947642+00:00", "meta": {"OBJECT_NAME": "STARLINK-35821", "OBJECT_ID": "2025-254AA", "EPOCH": "2025-12-02T04:55:28.198272", "MEAN_MOTION": 15.74281802, "ECCENTRICITY": 0.00012771, "INCLINATION": 53.157, "RA_OF_ASC_NODE": 327.1637, "ARG_OF_PERICENTER": 91.9852, "MEAN_ANOMALY": 268.1314, "EPHEMERIS_TYPE": 0, "CLASSIFICATION_TYPE": "U", "NORAD_CAT_ID": 66372, "ELEMENT_SET_NO": 999, "REV_AT_EPOCH": 402, "BSTAR": 0.0018837118, "MEAN_MOTION_DOT": 0.00285958, "MEAN_MOTION_DDOT": 0}, "tle": {"line1": "1 66372U 25254AA  25336.20518748  .00285958  00000+0  18837-2 0  9991", "line2": "2 66372  53.1570 327.1637 0001277  91.9852 268.1314 15.74281802  4026"}}, "geometry": {"type": "Point", "coordinates": [4.709538243159437, 40.48703601846447]}}]}